GOES 1 [-]              
1 08366U 75100A   15119.31201409 -.00000182  00000-0  00000+0 0  9994
2 08366  13.1065 327.5072 0003948 203.6875  64.3975  1.00233105144426
GOES 2 [-]              
1 10061U 77048A   15119.26109821 -.00000220  00000-0  00000+0 0  9994
2 10061  14.1405 336.1941 0012549 292.2981  33.0611  0.99401367 83088
GOES 3 [P]              
1 10953U 78062A   15120.26492606 -.00000092  00000-0  00000+0 0  9996
2 10953  14.1895 339.6825 0004762 142.6154  81.7375  1.00273129 88154
GOES 4 [-]              
1 11964U 80074A   15117.94604535  .00000062  00000-0  00000+0 0  9998
2 11964  14.8700 343.4154 0030132 355.4841 273.1937  0.99227356 87264
GOES 5 [-]              
1 12472U 81049A   15120.35414907 -.00000137  00000-0  00000+0 0  9991
2 12472  14.7489 353.4717 0004532 171.9937  79.4680  1.00205667 82193
GOES 6 [-]              
1 14050U 83041A   15119.43541619 -.00000184  00000-0  00000+0 0  9999
2 14050  14.8293 358.3033 0004754 132.8054 149.4997  1.00222976175282
GOES 7 [-]              
1 17561U 87022A   15119.26221191 -.00000301  00000-0  00000+0 0  9994
2 17561  14.9134  14.2305 0000864 315.9019 128.6291  0.99909007 86359
GOES 8 [-]              
1 23051U 94022A   15120.32164850  .00000034  00000-0  00000+0 0  9992
2 23051  10.2896  46.7972 0004384 213.9850 298.6308  0.98904127 83907
GOES 9 [-]              
1 23581U 95025A   15119.96821350 -.00000017  00000-0  00000+0 0  9999
2 23581   9.8053  45.8124 0005736  53.5532 144.1159  0.98799850 72575
GOES 10 [-]             
1 24786U 97019A   15120.39881949 -.00000064  00000-0  00000+0 0  9993
2 24786   8.0976  49.8424 0028843 134.5309  91.3338  0.99121219 65765
GOES 11 [-]             
1 26352U 00022A   15120.13354544  .00000000  00000-0  10000-3 0  9994
2 26352   3.3642  83.3301 0003713  52.7288 307.3607  0.99042211 54746
GOES 12 [-]             
1 26871U 01031A   15120.38590291 -.00000086  00000-0  00000+0 0  9999
2 26871   4.8887  66.5610 0005965 216.2308 353.0521  0.99135910 50429
GOES 13 [+]             
1 29155U 06018A   15120.32327981 -.00000259  00000-0  00000+0 0  9997
2 29155   0.2803 265.8278 0004858 157.5906 196.3093  1.00272442 32742
GOES 14 [S]             
1 35491U 09033A   15120.49062086 -.00000101  00000-0  00000+0 0  9993
2 35491   0.1551 100.3703 0000866  17.7855 172.1733  1.00272057 21396
GOES 15 [+]             
1 36411U 10008A   15120.45110270  .00000082  00000-0  00000+0 0  9992
2 36411   0.0844 110.1301 0001614 238.7110 256.2154  1.00269671 18910
